ONEWEB-0616             
1 55157U 23004T   23231.17470438  .00000089  00000+0  15775-3 0  9991
2 55157  88.1106 209.7000 0010283 224.6174 135.4139 13.32073847 31623
ONEWEB-0617             
1 55158U 23004U   23231.38866377 -.00000296  00000+0 -87209-3 0  9999
2 55158  87.8896 226.2425 0002137  65.8990 294.2361 13.11405907 30501
ONEWEB-0618             
1 55159U 23004V   23231.75870671  .00000159  00000+0  58159-4 0  9992
2 55159  86.9123 200.4068 0013373 173.9375 186.1982 14.26553910 32228
ONEWEB-0619             
1 55160U 23004W   23231.00915412  .00000026  00000+0  26582-4 0  9993
2 55160  87.9595 211.1328 0010731 243.0206 116.9838 13.31599586 31492
ONEWEB-0620             
1 55161U 23004X   23231.46051743  .00009502  00000+0  26706-1 0  9995
2 55161  87.8903 226.2271 0002347  70.7633 289.3748 13.11519149 30479
ONEWEB-0621             
1 55162U 23004Y   23231.91667824  .00000013  00000+0  00000+0 0  9994
2 55162  87.8944 226.1421 0008776 279.8575 145.9366 13.27740932 30522
ONEWEB-0622             
1 55163U 23004Z   23231.49356563  .00007283  00000+0  20513-1 0  9992
2 55163  87.8827 226.2247 0003192  61.3591 298.7857 13.11366914 30450
ONEWEB-0623             
1 55164U 23004AA  23230.79003623  .00000028  00000+0  30009-4 0  9995
2 55164  87.9545 211.2477 0002437 126.1536 233.9829 13.31023094 31461
